STARLINK-36877          
1 67896U 26035T   26061.58335648 -.00870724  26382-3 -14125-2 0  9998
2 67896  97.2776 353.3606 0001073  74.5833  45.5549 16.03427129  2619
STARLINK-36870          
1 67897U 26035U   26061.58335648 -.00873996  26697-3 -13836-2 0  9990
2 67897  97.2770 353.3651 0001076  83.5275  47.1754 16.03839853  2614
STARLINK-36810          
1 67898U 26035V   26061.58335648 -.00868867  26444-3 -13659-2 0  9995
2 67898  97.2769 353.3663 0001057  79.8105  53.8340 16.03956166  2617
STARLINK-36878          
1 67899U 26035W   26061.58335648 -.00869929  26580-3 -13482-2 0  9991
2 67899  97.2765 353.3689 0001084  97.6198  41.8560 16.04196002  2619
STARLINK-36361          
1 67900U 26035X   26061.58335648 -.00874687  26894-3 -13449-2 0  9992
2 67900  97.2765 353.3701 0001015  85.0112  57.6611 16.04328318  2617
STARLINK-36336          
1 67901U 26035Y   26061.58335648 -.00988291  33900-3 -14815-2 0  9994
2 67901  97.2767 353.3744 0001087  84.2722  68.0940 16.04767288  2663
STARLINK-36876          
1 67902U 26035Z   26061.58335648 -.00901177  28466-3 -13756-2 0  9997
2 67902  97.2769 353.3721 0001058  92.4799  52.9800 16.04453320  2615
STARLINK-36257          
1 67903U 26035AA  26061.58335648 -.00931727  30330-3 -14110-2 0  9990
2 67903  97.2765 353.3726 0001121  85.6702  62.7089 16.04590315  2665
STARLINK-36814          
1 67904U 26036A   26061.58335648 -.01527083  00000+0 -69155-2 0  9995
2 67904  42.9952 293.3798 0001831 263.5362 121.2327 15.85639467  2509
STARLINK-36729          
1 67905U 26036B   26061.58335648 -.01507285  00000+0 -67451-2 0  9995
2 67905  42.9948 293.3707 0001856 271.7635 116.3878 15.85845475  2500
STARLINK-36763          
1 67906U 26036C   26061.58335648 -.01506291  00000+0 -66757-2 0  9990
2 67906  42.9949 293.3621 0001951 269.1535 122.4495 15.86038923  2509
STARLINK-36742          
1 67907U 26036D   26061.58335648 -.01500675  00000+0 -65794-2 0  9991
2 67907  42.9950 293.3538 0001923 267.4633 127.4495 15.86247524  2502
