CCSDS_OMM_VERS = 2.0
CREATION_DATE  = 
ORIGINATOR     = 

OBJECT_NAME    = STARLINK-36877
OBJECT_ID      = 2026-035T
CENTER_NAME    = EARTH
REF_FRAME      = TEME
TIME_SYSTEM    = UTC
MEAN_ELEMENT_THEORY = SGP/SGP4

EPOCH          = 2026-03-02T14:00:01.999872
MEAN_MOTION    = 16.03427129
ECCENTRICITY   = .00010733
INCLINATION    = 97.2776
RA_OF_ASC_NODE = 353.3606
ARG_OF_PERICENTER = 74.5833
MEAN_ANOMALY   = 45.5549

EPHEMERIS_TYPE = 0
CLASSIFICATION_TYPE = U
NORAD_CAT_ID   = 67896
ELEMENT_SET_NO = 999
REV_AT_EPOCH   = 261
BSTAR          = -.14124767E-2
MEAN_MOTION_DOT = -.870724E-2
MEAN_MOTION_DDOT = .26382073E-3

CCSDS_OMM_VERS = 2.0
CREATION_DATE  = 
ORIGINATOR     = 

OBJECT_NAME    = STARLINK-36870
OBJECT_ID      = 2026-035U
CENTER_NAME    = EARTH
REF_FRAME      = TEME
TIME_SYSTEM    = UTC
MEAN_ELEMENT_THEORY = SGP/SGP4

EPOCH          = 2026-03-02T14:00:01.999872
MEAN_MOTION    = 16.03839853
ECCENTRICITY   = .00010767
INCLINATION    = 97.2770
RA_OF_ASC_NODE = 353.3651
ARG_OF_PERICENTER = 83.5275
MEAN_ANOMALY   = 47.1754

EPHEMERIS_TYPE = 0
CLASSIFICATION_TYPE = U
NORAD_CAT_ID   = 67897
ELEMENT_SET_NO = 999
REV_AT_EPOCH   = 261
BSTAR          = -.13835583E-2
MEAN_MOTION_DOT = -.873996E-2
MEAN_MOTION_DDOT = .26697247E-3

CCSDS_OMM_VERS = 2.0
CREATION_DATE  = 
ORIGINATOR     = 

OBJECT_NAME    = STARLINK-36810
OBJECT_ID      = 2026-035V
CENTER_NAME    = EARTH
REF_FRAME      = TEME
TIME_SYSTEM    = UTC
MEAN_ELEMENT_THEORY = SGP/SGP4

EPOCH          = 2026-03-02T14:00:01.999872
MEAN_MOTION    = 16.03956166
ECCENTRICITY   = .00010573
INCLINATION    = 97.2769
RA_OF_ASC_NODE = 353.3663
ARG_OF_PERICENTER = 79.8105
MEAN_ANOMALY   = 53.8340

EPHEMERIS_TYPE = 0
CLASSIFICATION_TYPE = U
NORAD_CAT_ID   = 67898
ELEMENT_SET_NO = 999
REV_AT_EPOCH   = 261
BSTAR          = -.13659003E-2
MEAN_MOTION_DOT = -.868867E-2
MEAN_MOTION_DDOT = .26444232E-3

CCSDS_OMM_VERS = 2.0
CREATION_DATE  = 
ORIGINATOR     = 

OBJECT_NAME    = STARLINK-36878
OBJECT_ID      = 2026-035W
CENTER_NAME    = EARTH
REF_FRAME      = TEME
TIME_SYSTEM    = UTC
MEAN_ELEMENT_THEORY = SGP/SGP4

EPOCH          = 2026-03-02T14:00:01.999872
MEAN_MOTION    = 16.04196002
ECCENTRICITY   = .00010841
INCLINATION    = 97.2765
RA_OF_ASC_NODE = 353.3689
ARG_OF_PERICENTER = 97.6198
MEAN_ANOMALY   = 41.8560

EPHEMERIS_TYPE = 0
CLASSIFICATION_TYPE = U
NORAD_CAT_ID   = 67899
ELEMENT_SET_NO = 999
REV_AT_EPOCH   = 261
BSTAR          = -.13481602E-2
MEAN_MOTION_DOT = -.869929E-2
MEAN_MOTION_DDOT = .26580283E-3

CCSDS_OMM_VERS = 2.0
CREATION_DATE  = 
ORIGINATOR     = 

OBJECT_NAME    = STARLINK-36361
OBJECT_ID      = 2026-035X
CENTER_NAME    = EARTH
REF_FRAME      = TEME
TIME_SYSTEM    = UTC
MEAN_ELEMENT_THEORY = SGP/SGP4

EPOCH          = 2026-03-02T14:00:01.999872
MEAN_MOTION    = 16.04328318
ECCENTRICITY   = .00010157
INCLINATION    = 97.2765
RA_OF_ASC_NODE = 353.3701
ARG_OF_PERICENTER = 85.0112
MEAN_ANOMALY   = 57.6611

EPHEMERIS_TYPE = 0
CLASSIFICATION_TYPE = U
NORAD_CAT_ID   = 67900
ELEMENT_SET_NO = 999
REV_AT_EPOCH   = 261
BSTAR          = -.13449206E-2
MEAN_MOTION_DOT = -.874687E-2
MEAN_MOTION_DDOT = .26893655E-3

CCSDS_OMM_VERS = 2.0
CREATION_DATE  = 
ORIGINATOR     = 

OBJECT_NAME    = STARLINK-36336
OBJECT_ID      = 2026-035Y
CENTER_NAME    = EARTH
REF_FRAME      = TEME
TIME_SYSTEM    = UTC
MEAN_ELEMENT_THEORY = SGP/SGP4

EPOCH          = 2026-03-02T14:00:01.999872
MEAN_MOTION    = 16.04767288
ECCENTRICITY   = .00010874
INCLINATION    = 97.2767
RA_OF_ASC_NODE = 353.3744
ARG_OF_PERICENTER = 84.2722
MEAN_ANOMALY   = 68.0940

EPHEMERIS_TYPE = 0
CLASSIFICATION_TYPE = U
NORAD_CAT_ID   = 67901
ELEMENT_SET_NO = 999
REV_AT_EPOCH   = 266
BSTAR          = -.14815366E-2
MEAN_MOTION_DOT = -.988291E-2
MEAN_MOTION_DDOT = .33899933E-3

CCSDS_OMM_VERS = 2.0
CREATION_DATE  = 
ORIGINATOR     = 

OBJECT_NAME    = STARLINK-36876
OBJECT_ID      = 2026-035Z
CENTER_NAME    = EARTH
REF_FRAME      = TEME
TIME_SYSTEM    = UTC
MEAN_ELEMENT_THEORY = SGP/SGP4

EPOCH          = 2026-03-02T14:00:01.999872
MEAN_MOTION    = 16.04453320
ECCENTRICITY   = .00010587
INCLINATION    = 97.2769
RA_OF_ASC_NODE = 353.3721
ARG_OF_PERICENTER = 92.4799
MEAN_ANOMALY   = 52.9800

EPHEMERIS_TYPE = 0
CLASSIFICATION_TYPE = U
NORAD_CAT_ID   = 67902
ELEMENT_SET_NO = 999
REV_AT_EPOCH   = 261
BSTAR          = -.13756235E-2
MEAN_MOTION_DOT = -.901177E-2
MEAN_MOTION_DDOT = .28466142E-3

CCSDS_OMM_VERS = 2.0
CREATION_DATE  = 
ORIGINATOR     = 

OBJECT_NAME    = STARLINK-36257
OBJECT_ID      = 2026-035AA
CENTER_NAME    = EARTH
REF_FRAME      = TEME
TIME_SYSTEM    = UTC
MEAN_ELEMENT_THEORY = SGP/SGP4

EPOCH          = 2026-03-02T14:00:01.999872
MEAN_MOTION    = 16.04590315
ECCENTRICITY   = .00011217
INCLINATION    = 97.2765
RA_OF_ASC_NODE = 353.3726
ARG_OF_PERICENTER = 85.6702
MEAN_ANOMALY   = 62.7089

EPHEMERIS_TYPE = 0
CLASSIFICATION_TYPE = U
NORAD_CAT_ID   = 67903
ELEMENT_SET_NO = 999
REV_AT_EPOCH   = 266
BSTAR          = -.14109763E-2
MEAN_MOTION_DOT = -.931727E-2
MEAN_MOTION_DDOT = .3033036E-3

CCSDS_OMM_VERS = 2.0
CREATION_DATE  = 
ORIGINATOR     = 

OBJECT_NAME    = STARLINK-36814
OBJECT_ID      = 2026-036A
CENTER_NAME    = EARTH
REF_FRAME      = TEME
TIME_SYSTEM    = UTC
MEAN_ELEMENT_THEORY = SGP/SGP4

EPOCH          = 2026-03-02T14:00:01.999872
MEAN_MOTION    = 15.85639467
ECCENTRICITY   = .00018314
INCLINATION    = 42.9952
RA_OF_ASC_NODE = 293.3798
ARG_OF_PERICENTER = 263.5362
MEAN_ANOMALY   = 121.2327

EPHEMERIS_TYPE = 0
CLASSIFICATION_TYPE = U
NORAD_CAT_ID   = 67904
ELEMENT_SET_NO = 999
REV_AT_EPOCH   = 250
BSTAR          = -.69155403E-2
MEAN_MOTION_DOT = -.1527083E-1
MEAN_MOTION_DDOT = 0

CCSDS_OMM_VERS = 2.0
CREATION_DATE  = 
ORIGINATOR     = 

OBJECT_NAME    = STARLINK-36729
OBJECT_ID      = 2026-036B
CENTER_NAME    = EARTH
REF_FRAME      = TEME
TIME_SYSTEM    = UTC
MEAN_ELEMENT_THEORY = SGP/SGP4

EPOCH          = 2026-03-02T14:00:01.999872
MEAN_MOTION    = 15.85845475
ECCENTRICITY   = .00018565
INCLINATION    = 42.9948
RA_OF_ASC_NODE = 293.3707
ARG_OF_PERICENTER = 271.7635
MEAN_ANOMALY   = 116.3878

EPHEMERIS_TYPE = 0
CLASSIFICATION_TYPE = U
NORAD_CAT_ID   = 67905
ELEMENT_SET_NO = 999
REV_AT_EPOCH   = 250
BSTAR          = -.67450984E-2
MEAN_MOTION_DOT = -.1507285E-1
MEAN_MOTION_DDOT = 0

CCSDS_OMM_VERS = 2.0
CREATION_DATE  = 
ORIGINATOR     = 

OBJECT_NAME    = STARLINK-36763
OBJECT_ID      = 2026-036C
CENTER_NAME    = EARTH
REF_FRAME      = TEME
TIME_SYSTEM    = UTC
MEAN_ELEMENT_THEORY = SGP/SGP4

EPOCH          = 2026-03-02T14:00:01.999872
MEAN_MOTION    = 15.86038923
ECCENTRICITY   = .00019518
INCLINATION    = 42.9949
RA_OF_ASC_NODE = 293.3621
ARG_OF_PERICENTER = 269.1535
MEAN_ANOMALY   = 122.4495

EPHEMERIS_TYPE = 0
CLASSIFICATION_TYPE = U
NORAD_CAT_ID   = 67906
ELEMENT_SET_NO = 999
REV_AT_EPOCH   = 250
BSTAR          = -.66756565E-2
MEAN_MOTION_DOT = -.1506291E-1
MEAN_MOTION_DDOT = 0

CCSDS_OMM_VERS = 2.0
CREATION_DATE  = 
ORIGINATOR     = 

OBJECT_NAME    = STARLINK-36742
OBJECT_ID      = 2026-036D
CENTER_NAME    = EARTH
REF_FRAME      = TEME
TIME_SYSTEM    = UTC
MEAN_ELEMENT_THEORY = SGP/SGP4

EPOCH          = 2026-03-02T14:00:01.999872
MEAN_MOTION    = 15.86247524
ECCENTRICITY   = .00019237
INCLINATION    = 42.9950
RA_OF_ASC_NODE = 293.3538
ARG_OF_PERICENTER = 267.4633
MEAN_ANOMALY   = 127.4495

EPHEMERIS_TYPE = 0
CLASSIFICATION_TYPE = U
NORAD_CAT_ID   = 67907
ELEMENT_SET_NO = 999
REV_AT_EPOCH   = 250
BSTAR          = -.65794013E-2
MEAN_MOTION_DOT = -.1500675E-1
MEAN_MOTION_DDOT = 0

